STARLINK-31701          
1 59582U 24076U   26068.24059664  .00050384  00000+0  18223-2 0  9993
2 59582  43.0036  11.5643 0001188 283.6526  76.4193 15.27682506106343
FLOCK 4G-21             
1 62651U 25009AU  26068.19487675  .00013648  00000+0  49619-3 0  9998
2 62651  97.4032 151.1274 0000465 329.5782  30.5431 15.28381075 63677
