[{"OBJECT_NAME":"STARLINK-31701","OBJECT_ID":"2024-076U","EPOCH":"2026-03-09T05:46:27.549696","MEAN_MOTION":15.27682506,"ECCENTRICITY":0.00011889,"INCLINATION":43.0036,"RA_OF_ASC_NODE":11.5643,"ARG_OF_PERICENTER":283.6526,"MEAN_ANOMALY":76.4193,"EPHEMERIS_TYPE":0,"CLASSIFICATION_TYPE":"U","NORAD_CAT_ID":59582,"ELEMENT_SET_NO":999,"REV_AT_EPOCH":10634,"BSTAR":0.0018222761,"MEAN_MOTION_DOT":0.00050384,"MEAN_MOTION_DDOT":0},{"OBJECT_NAME":"FLOCK 4G-21","OBJECT_ID":"2025-009AU","EPOCH":"2026-03-09T04:40:37.351200","MEAN_MOTION":15.28381075,"ECCENTRICITY":4.655e-5,"INCLINATION":97.4032,"RA_OF_ASC_NODE":151.1274,"ARG_OF_PERICENTER":329.5782,"MEAN_ANOMALY":30.5431,"EPHEMERIS_TYPE":0,"CLASSIFICATION_TYPE":"U","NORAD_CAT_ID":62651,"ELEMENT_SET_NO":999,"REV_AT_EPOCH":6367,"BSTAR":0.00049618643,"MEAN_MOTION_DOT":0.00013648,"MEAN_MOTION_DDOT":0}]
